STARLINK-36588          
1 67573U 26016N   26055.11767033  .00128609  00000+0  84848-3 0  9999
2 67573  97.2846 114.8849 0001297  91.1147 269.0267 15.75236993  4661
STARLINK-36594          
1 67574U 26016P   26055.58337963 -.00021794  00000+0 -14557-3 0  9995
2 67574  97.2854 115.4592 0000863  71.4684 249.7429 15.75198085  5999
STARLINK-36400          
1 67575U 26016Q   26055.48118960  .00220713  00000+0  14387-2 0  9999
2 67575  97.2844 115.3088 0000404  18.0614 342.0665 15.75253019  4727
STARLINK-36591          
1 67576U 26016R   26055.27860696  .00143999  00000+0  94779-3 0  9991
2 67576  97.2848 115.1246 0002007 108.6487 251.4996 15.75245706  4691
STARLINK-36590          
1 67577U 26016S   26055.61212533  .00235145  00000+0  15291-2 0  9997
2 67577  97.2849 115.4369 0001468 120.8678 239.2732 15.75269473  4745
STARLINK-36613          
1 67578U 26016T   26055.58337963  .00027987  00000+0  18799-3 0  9999
2 67578  97.2847 115.5041 0001602  82.3865 340.8374 15.75177424  5940
STARLINK-36571          
1 67579U 26016U   26055.55248167  .00203574  00000+0  13314-2 0  9999
2 67579  97.2852 115.3656 0001805 100.1297 260.0172 15.75225987  4733
STARLINK-36612          
1 67580U 26016V   26055.58337963 -.00050760  00000+0 -34089-3 0  9999
2 67580  97.2850 115.4847 0001326  86.2505 290.9505 15.75228608  5949
STARLINK-36632          
1 67581U 26016W   26055.54048333  .00157779  00000+0  10378-2 0  9996
2 67581  97.2856 115.3819 0001841  77.7138 282.4333 15.75221967  4735
STARLINK-36609          
1 67582U 26016X   26055.61988922  .00349194  00000+0  22391-2 0  9994
2 67582  97.2845 115.4262 0000470 101.6154 258.5164 15.75276593  4741
STARLINK-36577          
1 67583U 26016Y   26055.58337963  .00025085  00000+0  16857-3 0  9995
2 67583  97.2852 115.4994 0001309  80.8684 330.3381 15.75187972  5945
STARLINK-36419          
1 67584U 26016Z   26055.58813110  .00239321  00000+0  15566-2 0  9994
2 67584  97.2842 115.4700 0002180  26.3713 333.7663 15.75252699  4742
