CCSDS_OMM_VERS = 2.0
CREATION_DATE  = 
ORIGINATOR     = 

OBJECT_NAME    = STARLINK-36588
OBJECT_ID      = 2026-016N
CENTER_NAME    = EARTH
REF_FRAME      = TEME
TIME_SYSTEM    = UTC
MEAN_ELEMENT_THEORY = SGP/SGP4

EPOCH          = 2026-02-24T02:49:26.716512
MEAN_MOTION    = 15.75236993
ECCENTRICITY   = .0001297
INCLINATION    = 97.2846
RA_OF_ASC_NODE = 114.8849
ARG_OF_PERICENTER = 91.1147
MEAN_ANOMALY   = 269.0267

EPHEMERIS_TYPE = 0
CLASSIFICATION_TYPE = U
NORAD_CAT_ID   = 67573
ELEMENT_SET_NO = 999
REV_AT_EPOCH   = 466
BSTAR          = .84847568E-3
MEAN_MOTION_DOT = .128609E-2
MEAN_MOTION_DDOT = 0

CCSDS_OMM_VERS = 2.0
CREATION_DATE  = 
ORIGINATOR     = 

OBJECT_NAME    = STARLINK-36594
OBJECT_ID      = 2026-016P
CENTER_NAME    = EARTH
REF_FRAME      = TEME
TIME_SYSTEM    = UTC
MEAN_ELEMENT_THEORY = SGP/SGP4

EPOCH          = 2026-02-24T14:00:04.000032
MEAN_MOTION    = 15.75198085
ECCENTRICITY   = .00008636
INCLINATION    = 97.2854
RA_OF_ASC_NODE = 115.4592
ARG_OF_PERICENTER = 71.4684
MEAN_ANOMALY   = 249.7429

EPHEMERIS_TYPE = 0
CLASSIFICATION_TYPE = U
NORAD_CAT_ID   = 67574
ELEMENT_SET_NO = 999
REV_AT_EPOCH   = 599
BSTAR          = -.14557392E-3
MEAN_MOTION_DOT = -.21794E-3
MEAN_MOTION_DDOT = 0

CCSDS_OMM_VERS = 2.0
CREATION_DATE  = 
ORIGINATOR     = 

OBJECT_NAME    = STARLINK-36400
OBJECT_ID      = 2026-016Q
CENTER_NAME    = EARTH
REF_FRAME      = TEME
TIME_SYSTEM    = UTC
MEAN_ELEMENT_THEORY = SGP/SGP4

EPOCH          = 2026-02-24T11:32:54.781440
MEAN_MOTION    = 15.75253019
ECCENTRICITY   = .0000404
INCLINATION    = 97.2844
RA_OF_ASC_NODE = 115.3088
ARG_OF_PERICENTER = 18.0614
MEAN_ANOMALY   = 342.0665

EPHEMERIS_TYPE = 0
CLASSIFICATION_TYPE = U
NORAD_CAT_ID   = 67575
ELEMENT_SET_NO = 999
REV_AT_EPOCH   = 472
BSTAR          = .14387487E-2
MEAN_MOTION_DOT = .220713E-2
MEAN_MOTION_DDOT = 0

CCSDS_OMM_VERS = 2.0
CREATION_DATE  = 
ORIGINATOR     = 

OBJECT_NAME    = STARLINK-36591
OBJECT_ID      = 2026-016R
CENTER_NAME    = EARTH
REF_FRAME      = TEME
TIME_SYSTEM    = UTC
MEAN_ELEMENT_THEORY = SGP/SGP4

EPOCH          = 2026-02-24T06:41:11.641344
MEAN_MOTION    = 15.75245706
ECCENTRICITY   = .0002007
INCLINATION    = 97.2848
RA_OF_ASC_NODE = 115.1246
ARG_OF_PERICENTER = 108.6487
MEAN_ANOMALY   = 251.4996

EPHEMERIS_TYPE = 0
CLASSIFICATION_TYPE = U
NORAD_CAT_ID   = 67576
ELEMENT_SET_NO = 999
REV_AT_EPOCH   = 469
BSTAR          = .94779E-3
MEAN_MOTION_DOT = .143999E-2
MEAN_MOTION_DDOT = 0

CCSDS_OMM_VERS = 2.0
CREATION_DATE  = 
ORIGINATOR     = 

OBJECT_NAME    = STARLINK-36590
OBJECT_ID      = 2026-016S
CENTER_NAME    = EARTH
REF_FRAME      = TEME
TIME_SYSTEM    = UTC
MEAN_ELEMENT_THEORY = SGP/SGP4

EPOCH          = 2026-02-24T14:41:27.628512
MEAN_MOTION    = 15.75269473
ECCENTRICITY   = .00014686
INCLINATION    = 97.2849
RA_OF_ASC_NODE = 115.4369
ARG_OF_PERICENTER = 120.8678
MEAN_ANOMALY   = 239.2732

EPHEMERIS_TYPE = 0
CLASSIFICATION_TYPE = U
NORAD_CAT_ID   = 67577
ELEMENT_SET_NO = 999
REV_AT_EPOCH   = 474
BSTAR          = .15291054E-2
MEAN_MOTION_DOT = .235145E-2
MEAN_MOTION_DDOT = 0

CCSDS_OMM_VERS = 2.0
CREATION_DATE  = 
ORIGINATOR     = 

OBJECT_NAME    = STARLINK-36613
OBJECT_ID      = 2026-016T
CENTER_NAME    = EARTH
REF_FRAME      = TEME
TIME_SYSTEM    = UTC
MEAN_ELEMENT_THEORY = SGP/SGP4

EPOCH          = 2026-02-24T14:00:04.000032
MEAN_MOTION    = 15.75177424
ECCENTRICITY   = .00016025
INCLINATION    = 97.2847
RA_OF_ASC_NODE = 115.5041
ARG_OF_PERICENTER = 82.3865
MEAN_ANOMALY   = 340.8374

EPHEMERIS_TYPE = 0
CLASSIFICATION_TYPE = U
NORAD_CAT_ID   = 67578
ELEMENT_SET_NO = 999
REV_AT_EPOCH   = 594
BSTAR          = .18798709E-3
MEAN_MOTION_DOT = .27987E-3
MEAN_MOTION_DDOT = 0

CCSDS_OMM_VERS = 2.0
CREATION_DATE  = 
ORIGINATOR     = 

OBJECT_NAME    = STARLINK-36571
OBJECT_ID      = 2026-016U
CENTER_NAME    = EARTH
REF_FRAME      = TEME
TIME_SYSTEM    = UTC
MEAN_ELEMENT_THEORY = SGP/SGP4

EPOCH          = 2026-02-24T13:15:34.416288
MEAN_MOTION    = 15.75225987
ECCENTRICITY   = .00018058
INCLINATION    = 97.2852
RA_OF_ASC_NODE = 115.3656
ARG_OF_PERICENTER = 100.1297
MEAN_ANOMALY   = 260.0172

EPHEMERIS_TYPE = 0
CLASSIFICATION_TYPE = U
NORAD_CAT_ID   = 67579
ELEMENT_SET_NO = 999
REV_AT_EPOCH   = 473
BSTAR          = .13313509E-2
MEAN_MOTION_DOT = .203574E-2
MEAN_MOTION_DDOT = 0

CCSDS_OMM_VERS = 2.0
CREATION_DATE  = 
ORIGINATOR     = 

OBJECT_NAME    = STARLINK-36612
OBJECT_ID      = 2026-016V
CENTER_NAME    = EARTH
REF_FRAME      = TEME
TIME_SYSTEM    = UTC
MEAN_ELEMENT_THEORY = SGP/SGP4

EPOCH          = 2026-02-24T14:00:04.000032
MEAN_MOTION    = 15.75228608
ECCENTRICITY   = .00013266
INCLINATION    = 97.2850
RA_OF_ASC_NODE = 115.4847
ARG_OF_PERICENTER = 86.2505
MEAN_ANOMALY   = 290.9505

EPHEMERIS_TYPE = 0
CLASSIFICATION_TYPE = U
NORAD_CAT_ID   = 67580
ELEMENT_SET_NO = 999
REV_AT_EPOCH   = 594
BSTAR          = -.34089498E-3
MEAN_MOTION_DOT = -.5076E-3
MEAN_MOTION_DDOT = 0

CCSDS_OMM_VERS = 2.0
CREATION_DATE  = 
ORIGINATOR     = 

OBJECT_NAME    = STARLINK-36632
OBJECT_ID      = 2026-016W
CENTER_NAME    = EARTH
REF_FRAME      = TEME
TIME_SYSTEM    = UTC
MEAN_ELEMENT_THEORY = SGP/SGP4

EPOCH          = 2026-02-24T12:58:17.759712
MEAN_MOTION    = 15.75221967
ECCENTRICITY   = .00018411
INCLINATION    = 97.2856
RA_OF_ASC_NODE = 115.3819
ARG_OF_PERICENTER = 77.7138
MEAN_ANOMALY   = 282.4333

EPHEMERIS_TYPE = 0
CLASSIFICATION_TYPE = U
NORAD_CAT_ID   = 67581
ELEMENT_SET_NO = 999
REV_AT_EPOCH   = 473
BSTAR          = .10378005E-2
MEAN_MOTION_DOT = .157779E-2
MEAN_MOTION_DDOT = 0

CCSDS_OMM_VERS = 2.0
CREATION_DATE  = 
ORIGINATOR     = 

OBJECT_NAME    = STARLINK-36609
OBJECT_ID      = 2026-016X
CENTER_NAME    = EARTH
REF_FRAME      = TEME
TIME_SYSTEM    = UTC
MEAN_ELEMENT_THEORY = SGP/SGP4

EPOCH          = 2026-02-24T14:52:38.428608
MEAN_MOTION    = 15.75276593
ECCENTRICITY   = .00004701
INCLINATION    = 97.2845
RA_OF_ASC_NODE = 115.4262
ARG_OF_PERICENTER = 101.6154
MEAN_ANOMALY   = 258.5164

EPHEMERIS_TYPE = 0
CLASSIFICATION_TYPE = U
NORAD_CAT_ID   = 67582
ELEMENT_SET_NO = 999
REV_AT_EPOCH   = 474
BSTAR          = .22390511E-2
MEAN_MOTION_DOT = .349194E-2
MEAN_MOTION_DDOT = 0

CCSDS_OMM_VERS = 2.0
CREATION_DATE  = 
ORIGINATOR     = 

OBJECT_NAME    = STARLINK-36577
OBJECT_ID      = 2026-016Y
CENTER_NAME    = EARTH
REF_FRAME      = TEME
TIME_SYSTEM    = UTC
MEAN_ELEMENT_THEORY = SGP/SGP4

EPOCH          = 2026-02-24T14:00:04.000032
MEAN_MOTION    = 15.75187972
ECCENTRICITY   = .00013093
INCLINATION    = 97.2852
RA_OF_ASC_NODE = 115.4994
ARG_OF_PERICENTER = 80.8684
MEAN_ANOMALY   = 330.3381

EPHEMERIS_TYPE = 0
CLASSIFICATION_TYPE = U
NORAD_CAT_ID   = 67583
ELEMENT_SET_NO = 999
REV_AT_EPOCH   = 594
BSTAR          = .16857022E-3
MEAN_MOTION_DOT = .25085E-3
MEAN_MOTION_DDOT = 0

CCSDS_OMM_VERS = 2.0
CREATION_DATE  = 
ORIGINATOR     = 

OBJECT_NAME    = STARLINK-36419
OBJECT_ID      = 2026-016Z
CENTER_NAME    = EARTH
REF_FRAME      = TEME
TIME_SYSTEM    = UTC
MEAN_ELEMENT_THEORY = SGP/SGP4

EPOCH          = 2026-02-24T14:06:54.527040
MEAN_MOTION    = 15.75252699
ECCENTRICITY   = .00021806
INCLINATION    = 97.2842
RA_OF_ASC_NODE = 115.4700
ARG_OF_PERICENTER = 26.3713
MEAN_ANOMALY   = 333.7663

EPHEMERIS_TYPE = 0
CLASSIFICATION_TYPE = U
NORAD_CAT_ID   = 67584
ELEMENT_SET_NO = 999
REV_AT_EPOCH   = 474
BSTAR          = .15565726E-2
MEAN_MOTION_DOT = .239321E-2
MEAN_MOTION_DDOT = 0

